{
  "type": "FeatureCollection",
  "features": [
    {
      "type": "Feature",
      "properties": {
        "norad_id": 30527,
        "name": "FENGYUN 1C DEB",
        "group": "fengyun-1c-debris",
        "lat": -55.61851881139077,
        "lon": -154.09477697480557,
        "alt_km": 895.4672129143719,
        "timestamp": "2025-12-23T18:59:32.244431+00:00",
        "meta_object_name": "FENGYUN 1C DEB",
        "meta_object_id": "1999-025AJR",
        "meta_epoch": "2025-12-22T08:13:27.591744",
        "meta_mean_motion": 13.31053897,
        "meta_eccentricity": 0.04136442,
        "meta_inclination": 100.063,
        "meta_ra_of_asc_node": 39.5265,
        "meta_arg_of_pericenter": 203.7375,
        "meta_mean_anomaly": 292.1241,
        "meta_ephemeris_type": 0,
        "meta_classification_type": "U",
        "meta_norad_cat_id": 30527,
        "meta_element_set_no": 999,
        "meta_rev_at_epoch": 91484,
        "meta_bstar": 0.0013485819,
        "meta_mean_motion_dot": 9.85e-06,
        "meta_mean_motion_ddot": 0,
        "tle_line1": "1 30527U 99025AJR 25356.34268046  .00000985  00000+0  13486-2 0  9991",
        "tle_line2": "2 30527 100.0630  39.5265 0413644 203.7375 292.1241 13.31053897914845"
      },
      "geometry": {
        "type": "Point",
        "coordinates": [
          -154.09477697480557,
          -55.61851881139077
        ]
      }
    },
    {
      "type": "Feature",
      "properties": {
        "norad_id": 30528,
        "name": "FENGYUN 1C DEB",
        "group": "fengyun-1c-debris",
        "lat": -80.32475911797448,
        "lon": -11.64774402228585,
        "alt_km": 819.635066506622,
        "timestamp": "2025-12-23T18:59:32.244440+00:00",
        "meta_object_name": "FENGYUN 1C DEB",
        "meta_object_id": "1999-025AJS",
        "meta_epoch": "2025-12-23T03:14:01.779648",
        "meta_mean_motion": 14.13507475,
        "meta_eccentricity": 0.01439093,
        "meta_inclination": 98.2372,
        "meta_ra_of_asc_node": 225.9216,
        "meta_arg_of_pericenter": 195.7453,
        "meta_mean_anomaly": 328.295,
        "meta_ephemeris_type": 0,
        "meta_classification_type": "U",
        "meta_norad_cat_id": 30528,
        "meta_element_set_no": 999,
        "meta_rev_at_epoch": 97284,
        "meta_bstar": 0.00028532631,
        "meta_mean_motion_dot": 5.54e-06,
        "meta_mean_motion_ddot": 0,
        "tle_line1": "1 30528U 99025AJS 25357.13474282  .00000554  00000+0  28533-3 0  9993",
        "tle_line2": "2 30528  98.2372 225.9216 0143909 195.7453 328.2950 14.13507475972844"
      },
      "geometry": {
        "type": "Point",
        "coordinates": [
          -11.64774402228585,
          -80.32475911797448
        ]
      }
    },
    {
      "type": "Feature",
      "properties": {
        "norad_id": 30529,
        "name": "FENGYUN 1C DEB",
        "group": "fengyun-1c-debris",
        "lat": -80.62451979336814,
        "lon": 33.67072354860756,
        "alt_km": 948.5700006187526,
        "timestamp": "2025-12-23T18:59:32.244449+00:00",
        "meta_object_name": "FENGYUN 1C DEB",
        "meta_object_id": "1999-025AJT",
        "meta_epoch": "2025-12-13T17:51:26.012448",
        "meta_mean_motion": 13.71609854,
        "meta_eccentricity": 0.02304788,
        "meta_inclination": 98.487,
        "meta_ra_of_asc_node": 269.5039,
        "meta_arg_of_pericenter": 219.6089,
        "meta_mean_anomaly": 138.8027,
        "meta_ephemeris_type": 0,
        "meta_classification_type": "U",
        "meta_norad_cat_id": 30529,
        "meta_element_set_no": 999,
        "meta_rev_at_epoch": 94022,
        "meta_bstar": 0.00122315,
        "meta_mean_motion_dot": 1.295e-05,
        "meta_mean_motion_ddot": 0,
        "tle_line1": "1 30529U 99025AJT 25347.74405107  .00001295  00000+0  12232-2 0  9991",
        "tle_line2": "2 30529  98.4870 269.5039 0230478 219.6089 138.8027 13.71609854940220"
      },
      "geometry": {
        "type": "Point",
        "coordinates": [
          33.67072354860756,
          -80.62451979336814
        ]
      }
    },
    {
      "type": "Feature",
      "properties": {
        "norad_id": 30530,
        "name": "FENGYUN 1C DEB",
        "group": "fengyun-1c-debris",
        "lat": -52.39634258952028,
        "lon": 46.9437044952373,
        "alt_km": 842.1134000376987,
        "timestamp": "2025-12-23T18:59:32.244458+00:00",
        "meta_object_name": "FENGYUN 1C DEB",
        "meta_object_id": "1999-025AJU",
        "meta_epoch": "2025-12-22T13:54:08.404416",
        "meta_mean_motion": 14.36797492,
        "meta_eccentricity": 0.01004249,
        "meta_inclination": 98.3951,
        "meta_ra_of_asc_node": 34.7075,
        "meta_arg_of_pericenter": 107.6905,
        "meta_mean_anomaly": 53.7863,
        "meta_ephemeris_type": 0,
        "meta_classification_type": "U",
        "meta_norad_cat_id": 30530,
        "meta_element_set_no": 999,
        "meta_rev_at_epoch": 98926,
        "meta_bstar": 0.00021823672,
        "meta_mean_motion_dot": 6.39e-06,
        "meta_mean_motion_ddot": 0,
        "tle_line1": "1 30530U 99025AJU 25356.57926394  .00000639  00000+0  21824-3 0  9999",
        "tle_line2": "2 30530  98.3951  34.7075 0100424 107.6905  53.7863 14.36797492989261"
      },
      "geometry": {
        "type": "Point",
        "coordinates": [
          46.9437044952373,
          -52.39634258952028
        ]
      }
    },
    {
      "type": "Feature",
      "properties": {
        "norad_id": 30531,
        "name": "FENGYUN 1C DEB",
        "group": "fengyun-1c-debris",
        "lat": -76.88026351444014,
        "lon": -101.17726596568598,
        "alt_km": 695.7590274955846,
        "timestamp": "2025-12-23T18:59:32.244467+00:00",
        "meta_object_name": "FENGYUN 1C DEB",
        "meta_object_id": "1999-025AJV",
        "meta_epoch": "2025-12-21T06:37:22.804896",
        "meta_mean_motion": 14.6217341,
        "meta_eccentricity": 0.0026846,
        "meta_inclination": 102.3094,
        "meta_ra_of_asc_node": 185.5623,
        "meta_arg_of_pericenter": 182.9968,
        "meta_mean_anomaly": 177.106,
        "meta_ephemeris_type": 0,
        "meta_classification_type": "U",
        "meta_norad_cat_id": 30531,
        "meta_element_set_no": 999,
        "meta_rev_at_epoch": 97820,
        "meta_bstar": 0.003253,
        "meta_mean_motion_dot": 0.00016415,
        "meta_mean_motion_ddot": 0,
        "tle_line1": "1 30531U 99025AJV 25355.27595839  .00016415  00000+0  32530-2 0  9996",
        "tle_line2": "2 30531 102.3094 185.5623 0026846 182.9968 177.1060 14.62173410978209"
      },
      "geometry": {
        "type": "Point",
        "coordinates": [
          -101.17726596568598,
          -76.88026351444014
        ]
      }
    },
    {
      "type": "Feature",
      "properties": {
        "norad_id": 30532,
        "name": "FENGYUN 1C DEB",
        "group": "fengyun-1c-debris",
        "lat": 11.526632250624928,
        "lon": -136.24811508171035,
        "alt_km": 459.85504208587736,
        "timestamp": "2025-12-23T18:59:32.244476+00:00",
        "meta_object_name": "FENGYUN 1C DEB",
        "meta_object_id": "1999-025AJW",
        "meta_epoch": "2025-12-22T09:20:46.232736",
        "meta_mean_motion": 15.31741408,
        "meta_eccentricity": 0.00210939,
        "meta_inclination": 96.9606,
        "meta_ra_of_asc_node": 41.0058,
        "meta_arg_of_pericenter": 225.5619,
        "meta_mean_anomaly": 134.3898,
        "meta_ephemeris_type": 0,
        "meta_classification_type": "U",
        "meta_norad_cat_id": 30532,
        "meta_element_set_no": 999,
        "meta_rev_at_epoch": 97835,
        "meta_bstar": 0.013490382,
        "meta_mean_motion_dot": 0.00439979,
        "meta_mean_motion_ddot": 0,
        "tle_line1": "1 30532U 99025AJW 25356.38942399  .00439979  00000+0  13490-1 0  9994",
        "tle_line2": "2 30532  96.9606  41.0058 0021093 225.5619 134.3898 15.31741408978356"
      },
      "geometry": {
        "type": "Point",
        "coordinates": [
          -136.24811508171035,
          11.526632250624928
        ]
      }
    },
    {
      "type": "Feature",
      "properties": {
        "norad_id": 30533,
        "name": "FENGYUN 1C DEB",
        "group": "fengyun-1c-debris",
        "lat": -73.93435213127027,
        "lon": 159.89979394991323,
        "alt_km": 776.002196724331,
        "timestamp": "2025-12-23T18:59:32.244485+00:00",
        "meta_object_name": "FENGYUN 1C DEB",
        "meta_object_id": "1999-025AJX",
        "meta_epoch": "2025-12-22T20:48:06.492384",
        "meta_mean_motion": 14.54055426,
        "meta_eccentricity": 0.00814425,
        "meta_inclination": 98.8346,
        "meta_ra_of_asc_node": 126.2369,
        "meta_arg_of_pericenter": 118.7442,
        "meta_mean_anomaly": 7.3842,
        "meta_ephemeris_type": 0,
        "meta_classification_type": "U",
        "meta_norad_cat_id": 30533,
        "meta_element_set_no": 999,
        "meta_rev_at_epoch": 97968,
        "meta_bstar": 0.0031968502,
        "meta_mean_motion_dot": 0.00014073,
        "meta_mean_motion_ddot": 0,
        "tle_line1": "1 30533U 99025AJX 25356.86674181  .00014073  00000+0  31969-2 0  9995",
        "tle_line2": "2 30533  98.8346 126.2369 0081442 118.7442   7.3842 14.54055426979688"
      },
      "geometry": {
        "type": "Point",
        "coordinates": [
          159.89979394991323,
          -73.93435213127027
        ]
      }
    }
  ]
}